TKSAT-1 (TUPAC KATARI)  
1 39481U 13075A   26077.61598670 -.00000193  00000+0  00000+0 0  9997
2 39481   0.0335 317.1227 0002842  30.4957 323.0916  1.00273267 44690
EXPRESS-AM5             
1 39487U 13077A   26078.33644287 -.00000278  00000+0  00000+0 0  9995
2 39487   0.0181 214.7886 0002204 103.6767 119.5664  1.00271584 45455
GSAT-14                 
1 39498U 14001A   26078.00434952 -.00000075  00000+0  00000+0 0  9990
2 39498   0.0201 148.2360 0003908 160.5609 303.3197  1.00271465 44470
THAICOM 6               
1 39500U 14002A   26078.14787013 -.00000118  00000+0  00000+0 0  9997
2 39500   0.0332 136.4489 0002540 287.1046 244.8599  1.00268764 44554
TDRS 12                 
1 39504U 14004A   26078.30706355 -.00000266  00000+0  00000+0 0  9995
2 39504   3.8905  17.5170 0003226 274.6889 314.0423  1.00264937 43372
ABS-2                   
1 39508U 14006A   26078.17753174  .00000000  00000+0  00000+0 0  9992
2 39508   0.0229 178.2592 0002861 178.1712 319.1269  1.00269823 44378
ATHENA-FIDUS            
1 39509U 14006B   26078.28237736  .00000156  00000+0  00000+0 0  9998
2 39509   0.0138 191.8157 0001676 178.1715 306.2786  1.00271897 44186
TURKSAT 4A              
1 39522U 14007A   26078.21225455  .00000148  00000+0  00000+0 0  9993
2 39522   0.0633 292.1218 0004164  20.7854 342.2497  1.00271138 44069
EXPRESS-AT1             
1 39612U 14010A   26078.14345012  .00000079  00000+0  00000+0 0  9994
2 39612   0.0214 111.0308 0000458 339.0789 194.3322  1.00276535 43910
EXPRESS-AT2             
1 39613U 14010B   26070.51237429 -.00000280  00000+0  00000+0 0  9995
2 39613   0.0166 193.7113 0001308  80.7943 218.9521  1.00271550 43528
AMAZONAS 4A             
1 39616U 14011A   26078.26027726 -.00000250  00000+0  00000+0 0  9993
2 39616   0.0575 193.2733 0001970 146.3002 216.9348  1.00271734 43819
ASTRA 5B                
1 39617U 14011B   26078.22322296  .00000139  00000+0  00000+0 0  9995
2 39617   0.0873 301.0070 0003744  35.7592 303.8449  1.00271054 43767
IRNSS-1B                
1 39635U 14017A   26078.02544848  .00000103  00000+0  00000+0 0  9999
2 39635  29.0848 241.9419 0021640 180.4068 178.3696  1.00275796 43889
LUCH-5V                 
1 39727U 14023A   26078.00842288 -.00000263  00000+0  00000+0 0  9993
2 39727   4.9090  70.6329 0002438 301.4490 262.1787  1.00276305 43450
KAZSAT-3                
1 39728U 14023B   26077.71610823  .00000063  00000+0  00000+0 0  9996
2 39728   0.0460  57.5514 0000126  93.4378 341.5470  1.00271465 41556
EUTELSAT 3B             
1 39773U 14030A   26077.84766418  .00000022  00000+0  00000+0 0  9995
2 39773   0.0651 346.4209 0000260 262.0842 236.1540  1.00273130 43165
ASIASAT 8 (AMOS-7)      
1 40107U 14046A   26078.29581075  .00000000  00000+0  00000+0 0  9995
2 40107   0.0248 173.5349 0001412 180.6433  34.4811  1.00268857101249
ASIASAT 6               
1 40141U 14052A   26078.29867076 -.00000360  00000+0  00000+0 0  9998
2 40141   0.0361  88.9026 0000774 288.7625  26.5990  1.00270084 42178
OPTUS 10                
1 40146U 14054A   26077.87796068 -.00000145  00000+0  00000+0 0  9991
2 40146   0.0175 133.1086 0001737 227.7368 287.6517  1.00270703 42120
MEASAT-3B               
1 40147U 14054B   26078.07914318 -.00000240  00000+0  00000+0 0  9991
2 40147   0.0477  47.5854 0003060 333.2086 275.8258  1.00271968 42000
HIMAWARI-8              
1 40267U 14060A   26078.30274411 -.00000273  00000+0  00000+0 0  9996
2 40267   0.0163 200.5173 0000285 130.6727  95.3118  1.00270393 41850
IRNSS-1C                
1 40269U 14061A   26078.07768104 -.00000154  00000+0  00000+0 0  9998
2 40269   6.2870  90.6721 0020376 355.3728 201.4218  1.00275718 41781
INTELSAT 30 (IS-30)     
1 40271U 14062A   26078.14144196 -.00000149  00000+0  00000+0 0  9993
2 40271   0.0174 100.7539 0001196  19.4144  12.3735  1.00271387  5895
ARSAT 1                 
1 40272U 14062B   26078.26071059 -.00000257  00000+0  00000+0 0  9994
2 40272   0.0236  66.3417 0001500 278.0444 214.4695  1.00270924 41720
EUTELSAT 53A            
1 40277U 14064A   26078.14275677  .00000100  00000+0  00000+0 0  9996
2 40277   0.0142 236.9500 0001199 155.2519 248.8569  1.00271650 40662
GSAT-16                 
1 40332U 14078A   26077.91572466  .00000087  00000+0  00000+0 0  9997
2 40332   0.0122 122.6270 0005365 310.8651 127.7094  1.00271177 41205
DIRECTV 14              
1 40333U 14078B   26077.67295277  .00000000  00000+0  00000+0 0  9998
2 40333   0.0213 160.3843 0000468   3.7970 155.0858  1.00271455 41136
YAMAL 401               
1 40345U 14082A   26078.11517898 -.00000226  00000+0  00000+0 0  9993
2 40345   0.0071 148.2703 0000522 207.9978 311.8010  1.00273099 41013
ASTRA 2G                
1 40364U 14089A   26078.28029735  .00000000  00000+0  00000+0 0  9996
2 40364   0.0221   7.1033 0004447  25.3743 273.4420  1.00271201 41068
FENGYUN 2G              
1 40367U 14090A   26078.00937622 -.00000296  00000+0  00000+0 0  9992
2 40367   5.4090  73.9015 0001594 138.9630  66.7415  1.00268431 41092
MUOS-3                  
1 40374U 15002A   26078.27189065 -.00000123  00000+0  00000+0 0  9992
2 40374   4.3486  43.0654 0052389 183.5372  32.6390  1.00272405 40685
INMARSAT 5-F2           
1 40384U 15005A   26077.47974612  .00000000  00000+0  00000+0 0  9990
2 40384   0.0241 167.2401 0000318  86.0079  40.5095  1.00268671 40087
ABS-3A                  
1 40424U 15010A   26078.20299036  .00000000  00000+0  00000+0 0  9993
2 40424   0.0271 138.8140 0001609 167.2260 300.8091  1.00271856 40477
EUTELSAT 115 WEST B     
1 40425U 15010B   26077.83008189 -.00000023  00000+0  00000+0 0  9995
2 40425   0.0420   9.4075 0000043  44.9286 305.9631  1.00272540 40482
EXPRESS-AM7             
1 40505U 15012A   26078.28281069  .00000153  00000+0  00000+0 0  9999
2 40505   0.0135 219.7491 0002703 123.9930 334.9180  1.00274918 40102
BEIDOU-3S IGSO-1S       
1 40549U 15019A   26077.93653159 -.00000148  00000+0  00000+0 0  9993
2 40549  49.3636 296.5491 0036159 190.2951 123.1314  1.00270774 40166
THOR 7                  
1 40613U 15022A   26078.20342369 -.00000006  00000+0  00000+0 0  9991
2 40613   0.0132 178.0767 0002564 178.8352 252.4070  1.00271458 39919
TURKMENALEM52E/MONACOSAT
1 40617U 15023A   26078.21373707  .00000106  00000+0  00000+0 0  9997
2 40617   0.0207 147.6753 0002824 217.3527 300.7117  1.00274136 39943
DIRECTV 15              
1 40663U 15026A   26078.14280950 -.00000100  00000+0  00000+0 0  9995
2 40663   0.0233 106.5730 0000503  90.0273 288.6110  1.00268828 39564
SKY MEXICO-1            
1 40664U 15026B   26078.25932391  .00000000  00000+0  00000+0 0  9999
2 40664   0.0238 162.5934 0002209 215.2064 173.5607  1.00268055 39556
METEOSAT-11 (MSG-4)     
1 40732U 15034A   26078.27674401  .00000066  00000+0  00000+0 0  9993
2 40732   2.9758  71.5925 0001822 279.2027 294.8594  1.00270805  6314
STAR ONE C4             
1 40733U 15034B   26078.26105726 -.00000263  00000+0  00000+0 0  9992
2 40733   0.0489  16.2636 0002682 340.4492 204.0781  1.00272575 39113
WGS F7 (USA 263)        
1 40746U 15036A   26077.88168737  .00000000  00000+0  00000+0 0  9994
2 40746   0.0233 180.1073 0000387 255.5029 233.2391  1.00269668 38964
INTELSAT 34 (IS-34)     
1 40874U 15039A   26078.26391727 -.00000283  00000+0  00000+0 0  9993
2 40874   0.0249 267.5974 0000234 292.9560  15.7758  1.00270406 38725
EUTELSAT 8 WEST B       
1 40875U 15039B   26078.17197313 -.00000064  00000+0  00000+0 0  9996
2 40875   0.0679   2.0663 0003824 356.7553 231.7963  1.00271925 38757
GSAT-6                  
1 40880U 15041A   26078.14865014 -.00000157  00000+0  00000+0 0  9995
2 40880   1.6865  83.7441 0002936 282.4074 306.6063  1.00272651 38696
INMARSAT 5-F3           
1 40882U 15042A   26077.81128763  .00000000  00000+0  00000+0 0  9990
2 40882   0.0251 161.1785 0000960 242.4618 244.3586  1.00268575 38662
MUOS-4                  
1 40887U 15044A   26078.00443619 -.00000087  00000+0  00000+0 0  9995
2 40887   4.1601  41.6109 0058775 359.0479 212.4443  1.00271330 38650
TJS-1                   
1 40892U 15046A   26078.23427715 -.00000155  00000+0  00000+0 0  9993
2 40892   0.0909  83.5884 0004797 307.7251  24.7576  1.00268831 38664
EXPRESS-AM8             
1 40895U 15048A   26078.03881929 -.00000109  00000+0  00000+0 0  9996
2 40895   0.0180 216.2850 0000050 154.9845 165.2872  1.00271898 38448
SKY MUSTER 1 (NBN1A)    
1 40940U 15054A   26078.30265744 -.00000276  00000+0  00000+0 0  9990
2 40940   0.0198 209.9217 0001620 150.5344  65.5798  1.00271843 38353
ARSAT 2                 
1 40941U 15054B   26078.25889058 -.00000223  00000+0  00000+0 0  9997
2 40941   0.0205 100.7900 0001987 245.5080 202.7044  1.00270989 38403
MORELOS 3               
1 40946U 15056A   26077.96722773 -.00000039  00000+0  00000+0 0  9996
2 40946   3.1195  12.5286 0003350   5.0773  33.9915  1.00272436 38388
APSTAR-9                
1 40982U 15059A   26078.30300411 -.00000264  00000+0  00000+0 0  9999
2 40982   0.0474  36.2446 0001690 220.0952 171.6045  1.00271657 38218
TURKSAT 4B              
1 40984U 15060A   26078.21347707  .00000117  00000+0  00000+0 0  9998
2 40984   0.0201 142.7637 0002103 224.0511 296.7734  1.00271214 38198
ZHONGXING-2C            
1 41021U 15063A   26078.29537742 -.00000322  00000+0  00000+0 0  9991
2 41021   0.0432 117.9277 0006940 100.8279 167.8134  1.00274623 38072
GSAT-15                 
1 41028U 15065A   26078.07948985 -.00000255  00000+0  00000+0 0  9996
2 41028   0.0552 267.5017 0001560 128.6321 262.5922  1.00269474 37890
BADR-7 (ARABSAT-6B)     
1 41029U 15065B   26078.28003735  .00000147  00000+0  00000+0 0  9994
2 41029   0.0233 201.8540 0003007  53.4897  48.2753  1.00272167 37861
LAOSAT 1                
1 41034U 15067A   26078.30040410 -.00000341  00000+0  00000+0 0  9993
2 41034   0.0383  59.8463 0001997 259.7452  93.9123  1.00273042 37953
